{
  "type": "FeatureCollection",
  "name": "invalid_business_field_example",
  "features": [
    {
      "type": "Feature",
      "properties": {
        "id_case": "invalid_business_0001",
        "region": "test",
        "sous_region": null,
        "cote": false,
        "lac": false,
        "fluvial": false,
        "terrain_type": "foret"
      },
      "geometry": {
        "type": "Polygon",
        "coordinates": [
          [
            [0, 0],
            [1, 0],
            [1, 1],
            [0, 1],
            [0, 0]
          ]
        ]
      }
    }
  ]
}
